{
  "SunFrameName": "MeanEclpJ2000",
  "DepartureCbName": "Earth",
  "ArrivalCbName": "2018 RO5",
  "DepartureInterval": "2028-10-01T00:00:00Z/2032-05-31T00:00:00Z",
  "ArrivalInterval": "2029-05-01T00:00:00Z/2032-08-31T00:00:00Z",
  "MinTofDays": 10,
  "DepartureStepDay": 5,
  "ArrivalStepDay": 5,
  "ArrivalElements": {
    "EpochMjdTdt": 60200,
    "SemimajorAxis": 0.9914787418722525,
    "Eccentricity": 0.231710146257057,
    "Inclination": 2.6861324841782,
    "Raan": 347.7879483846978,
    "ArgOfPeriapsis": 252.0074765165407,
    "MeanAnomaly": 106.7893721196893,
    "PeriTimeMjdTdt": 60093.0331837623,
    "Q": 0.76174305758227
  }
}